LANDSAT 9               
1 49260U 21088A   24128.17523361  .00000803  00000+0  18824-3 0  9991
2 49260  98.1886 198.4849 0001320  88.9333 271.2016 14.57113095138711
